{"type": "FeatureCollection", "features": [ {"type": "Feature", "properties": {"norad_id": 66624, "name": "STARLINK-35927", "group": "last-30-days", "lat": -27.534801344774536, "lon": 120.24199089933273, "alt_km": 435.9340163492643, "timestamp": "2025-12-21T22:41:40.163583+00:00", "meta": {"OBJECT_NAME": "STARLINK-35927", "OBJECT_ID": "2025-271H", "EPOCH": "2025-12-19T22:44:25.582848", "MEAN_MOTION": 15.46532201, "ECCENTRICITY": 8.49e-05, "INCLINATION": 53.159, "RA_OF_ASC_NODE": 152.7553, "ARG_OF_PERICENTER": 106.2501, "MEAN_ANOMALY": 253.86, "EPHEMERIS_TYPE": 0, "CLASSIFICATION_TYPE": "U", "NORAD_CAT_ID": 66624, "ELEMENT_SET_NO": 999, "REV_AT_EPOCH": 532, "BSTAR": -0.0084107, "MEAN_MOTION_DOT": -0.00403682, "MEAN_MOTION_DDOT": 0}, "tle": {"line1": "1 66624U 25271H   25353.94751832 -.00403682  00000+0 -84107-2 0  9994", "line2": "2 66624  53.1590 152.7553 0000849 106.2501 253.8600 15.46532201  5326"}}, "geometry": {"type": "Point", "coordinates": [120.24199089933273, -27.534801344774536]}}, {"type": "Feature", "properties": {"norad_id": 66625, "name": "STARLINK-35929", "group": "last-30-days", "lat": -49.68397368927231, "lon": 25.469051015454394, "alt_km": 452.4855437559436, "timestamp": "2025-12-21T22:41:40.163593+00:00", "meta": {"OBJECT_NAME": "STARLINK-35929", "OBJECT_ID": "2025-271J", "EPOCH": "2025-12-21T14:00:01.999872", "MEAN_MOTION": 15.39616004, "ECCENTRICITY": 7.606e-05, "INCLINATION": 53.1597, "RA_OF_ASC_NODE": 145.1036, "ARG_OF_PERICENTER": 87.1362, "MEAN_ANOMALY": 316.2602, "EPHEMERIS_TYPE": 0, "CLASSIFICATION_TYPE": "U", "NORAD_CAT_ID": 66625, "ELEMENT_SET_NO": 999, "REV_AT_EPOCH": 566, "BSTAR": -8.8927775e-05, "MEAN_MOTION_DOT": -3.953e-05, "MEAN_MOTION_DDOT": 0}, "tle": {"line1": "1 66625U 25271J   25355.58335648 -.00003953  00000+0 -88928-4 0  9994", "line2": "2 66625  53.1597 145.1036 0000760  87.1362 316.2602 15.39616004  5669"}}, "geometry": {"type": "Point", "coordinates": [25.469051015454394, -49.68397368927231]}}, {"type": "Feature", "properties": {"norad_id": 66626, "name": "STARLINK-35902", "group": "last-30-days", "lat": 3.837132417740262, "lon": -39.332799887602725, "alt_km": 447.56930646761975, "timestamp": "2025-12-21T22:41:40.163603+00:00", "meta": {"OBJECT_NAME": "STARLINK-35902", "OBJECT_ID": "2025-271K", "EPOCH": "2025-12-21T00:00:02.000160", "MEAN_MOTION": 15.39615057, "ECCENTRICITY": 0.00015011, "INCLINATION": 53.1595, "RA_OF_ASC_NODE": 148.0064, "ARG_OF_PERICENTER": 83.5733, "MEAN_ANOMALY": 247.5443, "EPHEMERIS_TYPE": 0, "CLASSIFICATION_TYPE": "U", "NORAD_CAT_ID": 66626, "ELEMENT_SET_NO": 999, "REV_AT_EPOCH": 557, "BSTAR": 0.00017950607, "MEAN_MOTION_DOT": 6.786e-05, "MEAN_MOTION_DDOT": 0}, "tle": {"line1": "1 66626U 25271K   25355.00002315  .00006786  00000+0  17951-3 0  9996", "line2": "2 66626  53.1595 148.0064 0001501  83.5733 247.5443 15.39615057  5573"}}, "geometry": {"type": "Point", "coordinates": [-39.332799887602725, 3.837132417740262]}}, {"type": "Feature", "properties": {"norad_id": 66627, "name": "STARLINK-35904", "group": "last-30-days", "lat": -35.580781222711416, "lon": -4.115204372756531, "alt_km": 451.96418505524707, "timestamp": "2025-12-21T22:41:40.163613+00:00", "meta": {"OBJECT_NAME": "STARLINK-35904", "OBJECT_ID": "2025-271L", "EPOCH": "2025-12-21T14:00:01.999872", "MEAN_MOTION": 15.39611363, "ECCENTRICITY": 9.627e-05, "INCLINATION": 53.1593, "RA_OF_ASC_NODE": 145.1548, "ARG_OF_PERICENTER": 79.8998, "MEAN_ANOMALY": 297.7498, "EPHEMERIS_TYPE": 0, "CLASSIFICATION_TYPE": "U", "NORAD_CAT_ID": 66627, "ELEMENT_SET_NO": 999, "REV_AT_EPOCH": 550, "BSTAR": 3.621708e-06, "MEAN_MOTION_DOT": -2.54e-06, "MEAN_MOTION_DDOT": 0}, "tle": {"line1": "1 66627U 25271L   25355.58335648 -.00000254  00000+0  36217-5 0  9991", "line2": "2 66627  53.1593 145.1548 0000962  79.8998 297.7498 15.39611363  5504"}}, "geometry": {"type": "Point", "coordinates": [-4.115204372756531, -35.580781222711416]}}, {"type": "Feature", "properties": {"norad_id": 66628, "name": "STARLINK-35862", "group": "last-30-days", "lat": -17.213949967150228, "lon": 129.79137681262392, "alt_km": 430.4575788550628, "timestamp": "2025-12-21T22:41:40.163623+00:00", "meta": {"OBJECT_NAME": "STARLINK-35862", "OBJECT_ID": "2025-271M", "EPOCH": "2025-12-21T15:01:56.271936", "MEAN_MOTION": 15.46332128, "ECCENTRICITY": 0.00024169, "INCLINATION": 53.1604, "RA_OF_ASC_NODE": 144.7425, "ARG_OF_PERICENTER": 236.1286, "MEAN_ANOMALY": 123.9492, "EPHEMERIS_TYPE": 0, "CLASSIFICATION_TYPE": "U", "NORAD_CAT_ID": 66628, "ELEMENT_SET_NO": 999, "REV_AT_EPOCH": 558, "BSTAR": 0.0017100955, "MEAN_MOTION_DOT": 0.00086273, "MEAN_MOTION_DDOT": 0}, "tle": {"line1": "1 66628U 25271M   25355.62634574  .00086273  00000+0  17101-2 0  9999", "line2": "2 66628  53.1604 144.7425 0002416 236.1286 123.9492 15.46332128  5580"}}, "geometry": {"type": "Point", "coordinates": [129.79137681262392, -17.213949967150228]}}, {"type": "Feature", "properties": {"norad_id": 66629, "name": "STARLINK-35956", "group": "last-30-days", "lat": 7.283286852060512, "lon": 148.6572677456744, "alt_km": 417.8054973043254, "timestamp": "2025-12-21T22:41:40.163637+00:00", "meta": {"OBJECT_NAME": "STARLINK-35956", "OBJECT_ID": "2025-271N", "EPOCH": "2025-12-18T16:00:00.999936", "MEAN_MOTION": 15.49463337, "ECCENTRICITY": 5.424e-05, "INCLINATION": 53.1591, "RA_OF_ASC_NODE": 158.846, "ARG_OF_PERICENTER": 63.7637, "MEAN_ANOMALY": 4.4961, "EPHEMERIS_TYPE": 0, "CLASSIFICATION_TYPE": "U", "NORAD_CAT_ID": 66629, "ELEMENT_SET_NO": 999, "REV_AT_EPOCH": 519, "BSTAR": 0.0002238515, "MEAN_MOTION_DOT": 0.00012088, "MEAN_MOTION_DDOT": 0}, "tle": {"line1": "1 66629U 25271N   25352.66667824  .00012088  00000+0  22385-3 0  9999", "line2": "2 66629  53.1591 158.8460 0000542  63.7637   4.4961 15.49463337  5194"}}, "geometry": {"type": "Point", "coordinates": [148.6572677456744, 7.283286852060512]}}, {"type": "Feature", "properties": {"norad_id": 66630, "name": "STARLINK-35949", "group": "last-30-days", "lat": -13.899188699543048, "lon": 132.5197300324178, "alt_km": 431.1127100255608, "timestamp": "2025-12-21T22:41:40.163649+00:00", "meta": {"OBJECT_NAME": "STARLINK-35949", "OBJECT_ID": "2025-271P", "EPOCH": "2025-12-19T21:07:53.060736", "MEAN_MOTION": 15.46903837, "ECCENTRICITY": 0.0003221, "INCLINATION": 53.1593, "RA_OF_ASC_NODE": 153.0444, "ARG_OF_PERICENTER": 47.5604, "MEAN_ANOMALY": 312.5676, "EPHEMERIS_TYPE": 0, "CLASSIFICATION_TYPE": "U", "NORAD_CAT_ID": 66630, "ELEMENT_SET_NO": 999, "REV_AT_EPOCH": 531, "BSTAR": -0.005658, "MEAN_MOTION_DOT": -0.002797, "MEAN_MOTION_DDOT": 0}, "tle": {"line1": "1 66630U 25271P   25353.88047524 -.00279700  00000+0 -56580-2 0  9996", "line2": "2 66630  53.1593 153.0444 0003221  47.5604 312.5676 15.46903837  5319"}}, "geometry": {"type": "Point", "coordinates": [132.5197300324178, -13.899188699543048]}}, {"type": "Feature", "properties": {"norad_id": 66631, "name": "STARLINK-35965", "group": "last-30-days", "lat": -16.462489961555406, "lon": 130.4226278237595, "alt_km": 432.4579768259382, "timestamp": "2025-12-21T22:41:40.163660+00:00", "meta": {"OBJECT_NAME": "STARLINK-35965", "OBJECT_ID": "2025-271Q", "EPOCH": "2025-12-21T14:00:01.999872", "MEAN_MOTION": 15.45538839, "ECCENTRICITY": 0.00012592, "INCLINATION": 53.1605, "RA_OF_ASC_NODE": 144.9448, "ARG_OF_PERICENTER": 63.1036, "MEAN_ANOMALY": 59.594, "EPHEMERIS_TYPE": 0, "CLASSIFICATION_TYPE": "U", "NORAD_CAT_ID": 66631, "ELEMENT_SET_NO": 999, "REV_AT_EPOCH": 566, "BSTAR": 0.00025151134, "MEAN_MOTION_DOT": 0.00011862, "MEAN_MOTION_DDOT": 0}, "tle": {"line1": "1 66631U 25271Q   25355.58335648  .00011862  00000+0  25151-3 0  9995", "line2": "2 66631  53.1605 144.9448 0001259  63.1036  59.5940 15.45538839  5664"}}, "geometry": {"type": "Point", "coordinates": [130.4226278237595, -16.462489961555406]}}, {"type": "Feature", "properties": {"norad_id": 66632, "name": "STARLINK-35973", "group": "last-30-days", "lat": 41.661644196774304, "lon": -78.19228904840865, "alt_km": 441.06027775407165, "timestamp": "2025-12-21T22:41:40.163671+00:00", "meta": {"OBJECT_NAME": "STARLINK-35973", "OBJECT_ID": "2025-271R", "EPOCH": "2025-12-20T19:40:30.284544", "MEAN_MOTION": 15.39631225, "ECCENTRICITY": 0.00012232, "INCLINATION": 53.1603, "RA_OF_ASC_NODE": 148.9553, "ARG_OF_PERICENTER": 63.442, "MEAN_ANOMALY": 296.671, "EPHEMERIS_TYPE": 0, "CLASSIFICATION_TYPE": "U", "NORAD_CAT_ID": 66632, "ELEMENT_SET_NO": 999, "REV_AT_EPOCH": 541, "BSTAR": 0.00073080685, "MEAN_MOTION_DOT": 0.00028954, "MEAN_MOTION_DDOT": 0}, "tle": {"line1": "1 66632U 25271R   25354.81979496  .00028954  00000+0  73081-3 0  9991", "line2": "2 66632  53.1603 148.9553 0001223  63.4420 296.6710 15.39631225  5413"}}, "geometry": {"type": "Point", "coordinates": [-78.19228904840865, 41.661644196774304]}}, {"type": "Feature", "properties": {"norad_id": 66633, "name": "STARLINK-35948", "group": "last-30-days", "lat": 40.62902098684776, "lon": -76.38540913696251, "alt_km": 441.1490191840703, "timestamp": "2025-12-21T22:41:40.163682+00:00", "meta": {"OBJECT_NAME": "STARLINK-35948", "OBJECT_ID": "2025-271S", "EPOCH": "2025-12-21T14:21:45.025056", "MEAN_MOTION": 15.39650577, "ECCENTRICITY": 0.00011437, "INCLINATION": 53.1614, "RA_OF_ASC_NODE": 145.2826, "ARG_OF_PERICENTER": 83.2943, "MEAN_ANOMALY": 276.8192, "EPHEMERIS_TYPE": 0, "CLASSIFICATION_TYPE": "U", "NORAD_CAT_ID": 66633, "ELEMENT_SET_NO": 999, "REV_AT_EPOCH": 557, "BSTAR": 0.00091576268, "MEAN_MOTION_DOT": 0.00036442, "MEAN_MOTION_DDOT": 0}, "tle": {"line1": "1 66633U 25271S   25355.59843779  .00036442  00000+0  91576-3 0  9992", "line2": "2 66633  53.1614 145.2826 0001143  83.2943 276.8192 15.39650577  5572"}}, "geometry": {"type": "Point", "coordinates": [-76.38540913696251, 40.62902098684776]}}]}